LUCH 5A (SDCM/PRN 140)  
1 37951U 11074B   26087.79170778 -.00000063  00000+0  00000+0 0  9995
2 37951   8.5510  74.9754 0003232 271.7532 291.4452  1.00269816 52242
